{
"type": "FeatureCollection",
"name": "277 - Ida y Vuelta",
"crs": { "type": "name", "properties": { "name": "urn:ogc:def:crs:OGC:1.3:CRS84" } },
"features": [
{ "type": "Feature", "properties": { "Name": "277 - IDA Y VUELTA", "Nombre": "277 - IDA Y VUELTA" }, "geometry": { "type": "LineString", "coordinates": [ [ -58.479747, -34.75165, 0.0 ], [ -58.478309, -34.750962, 0.0 ], [ -58.474018, -34.756798, 0.0 ], [ -58.473267, -34.756622, 0.0 ], [ -58.471593, -34.756939, 0.0 ], [ -58.47067, -34.753325, 0.0 ], [ -58.470992, -34.752902, 0.0 ], [ -58.47052, -34.75225, 0.0 ], [ -58.469984, -34.750592, 0.0 ], [ -58.472065, -34.747754, 0.0 ], [ -58.465048, -34.74391, 0.0 ], [ -58.458075, -34.740542, 0.0 ], [ -58.45477, -34.745021, 0.0 ], [ -58.453376, -34.744298, 0.0 ], [ -58.452303, -34.745673, 0.0 ], [ -58.41782, -34.726893, 0.0 ], [ -58.4134, -34.732642, 0.0 ] ] } }
]
}
