{
"type": "FeatureCollection",
"name": "Autobuses 552A - V a Banfield",
"crs": { "type": "name", "properties": { "name": "urn:ogc:def:crs:OGC:1.3:CRS84" } },
"features": [
{ "type": "Feature", "properties": { "Name": "552 A - Cruce a Banfield", "nombre": "" }, "geometry": { "type": "LineString", "coordinates": [ [ -58.457576, -34.779533, 0.0 ], [ -58.458019, -34.77895, 0.0 ], [ -58.45771, -34.778656, 0.0 ], [ -58.457431, -34.778502, 0.0 ], [ -58.447191, -34.773305, 0.0 ], [ -58.443838, -34.771484, 0.0 ], [ -58.438238, -34.768467, 0.0 ], [ -58.438792, -34.767775, 0.0 ], [ -58.442166, -34.76948, 0.0 ], [ -58.447919, -34.761828, 0.0 ], [ -58.445631, -34.760714, 0.0 ], [ -58.449812, -34.755149, 0.0 ], [ -58.446342, -34.753384, 0.0 ], [ -58.445014, -34.752679, 0.0 ], [ -58.444725, -34.752437, 0.0 ], [ -58.443148, -34.750771, 0.0 ], [ -58.442793, -34.750415, 0.0 ], [ -58.439555, -34.74857, 0.0 ], [ -58.438, -34.747724, 0.0 ], [ -58.432778, -34.744586, 0.0 ], [ -58.432182, -34.745283, 0.0 ], [ -58.426982, -34.746011, 0.0 ], [ -58.425796, -34.746156, 0.0 ], [ -58.400426, -34.74976, 0.0 ], [ -58.397412, -34.750154, 0.0 ], [ -58.396519, -34.745666, 0.0 ], [ -58.396054, -34.74326, 0.0 ] ] } }
]
}
