{
"type": "FeatureCollection",
"name": "Autobuses 540 - V a La Noria",
"crs": { "type": "name", "properties": { "name": "urn:ogc:def:crs:OGC:1.3:CRS84" } },
"features": [
{ "type": "Feature", "properties": { "Name": "540 - Lomas a La Noria", "nombre": "540 - Lomas a La Noria" }, "geometry": { "type": "LineString", "coordinates": [ [ -58.397648, -34.760227, 0.0 ], [ -58.397602, -34.759819, 0.0 ], [ -58.40381, -34.758904, 0.0 ], [ -58.404345, -34.761337, 0.0 ], [ -58.405209, -34.76552, 0.0 ], [ -58.409622, -34.767866, 0.0 ], [ -58.417794, -34.766689, 0.0 ], [ -58.427672, -34.765272, 0.0 ], [ -58.428668, -34.76513, 0.0 ], [ -58.429065, -34.765112, 0.0 ], [ -58.429398, -34.765227, 0.0 ], [ -58.429655, -34.76535, 0.0 ], [ -58.431028, -34.766205, 0.0 ], [ -58.433314, -34.767527, 0.0 ], [ -58.434564, -34.765976, 0.0 ], [ -58.442369, -34.75576, 0.0 ], [ -58.443767, -34.75651, 0.0 ], [ -58.446176, -34.753285, 0.0 ], [ -58.452098, -34.745695, 0.0 ], [ -58.453351, -34.744122, 0.0 ], [ -58.454736, -34.744829, 0.0 ], [ -58.458538, -34.739807, 0.0 ], [ -58.461593, -34.735747, 0.0 ], [ -58.463956, -34.732594, 0.0 ], [ -58.463913, -34.732367, 0.0 ], [ -58.464021, -34.73222, 0.0 ], [ -58.464096, -34.732189, 0.0 ], [ -58.46431, -34.731896, 0.0 ], [ -58.466599, -34.728849, 0.0 ], [ -58.466814, -34.728511, 0.0 ], [ -58.466894, -34.72822, 0.0 ], [ -58.466792, -34.727914, 0.0 ], [ -58.466218, -34.72708, 0.0 ], [ -58.467343, -34.725538, 0.0 ], [ -58.468717, -34.723951, 0.0 ], [ -58.469999, -34.722346, 0.0 ], [ -58.470691, -34.721764, 0.0 ], [ -58.474199, -34.719096, 0.0 ], [ -58.468889, -34.714243, 0.0 ], [ -58.464981, -34.710333, 0.0 ], [ -58.461516, -34.706726, 0.0 ], [ -58.461161, -34.706386, 0.0 ], [ -58.460673, -34.706162, 0.0 ], [ -58.459771, -34.706762, 0.0 ], [ -58.458883, -34.7078, 0.0 ], [ -58.458355, -34.707857, 0.0 ], [ -58.458173, -34.707785, 0.0 ], [ -58.457953, -34.707822, 0.0 ], [ -58.457802, -34.707932, 0.0 ], [ -58.456544, -34.708866, 0.0 ], [ -58.45601, -34.70936, 0.0 ], [ -58.455442, -34.709371, 0.0 ], [ -58.455002, -34.70921, 0.0 ], [ -58.454279, -34.708788, 0.0 ], [ -58.454156, -34.708408, 0.0 ], [ -58.454277, -34.708053, 0.0 ], [ -58.454698, -34.70776, 0.0 ], [ -58.455758, -34.70738, 0.0 ], [ -58.455873, -34.707332, 0.0 ], [ -58.45572, -34.707116, 0.0 ], [ -58.455468, -34.706825, 0.0 ], [ -58.454442, -34.707438, 0.0 ] ] } }
]
}
