{
"type": "FeatureCollection",
"name": "Autobuses 551A - V al Penal",
"crs": { "type": "name", "properties": { "name": "urn:ogc:def:crs:OGC:1.3:CRS84" } },
"features": [
{ "type": "Feature", "properties": { "Name": "551 A - Lomas al Penal", "nombre": "" }, "geometry": { "type": "LineString", "coordinates": [ [ -58.397665, -34.760434, 0.0 ], [ -58.397614, -34.759806, 0.0 ], [ -58.405153, -34.75873, 0.0 ], [ -58.403147, -34.74922, 0.0 ], [ -58.429541, -34.745478, 0.0 ], [ -58.432181, -34.74517, 0.0 ], [ -58.432771, -34.744395, 0.0 ], [ -58.436108, -34.746383, 0.0 ], [ -58.4382, -34.743972, 0.0 ], [ -58.438813, -34.744639, 0.0 ], [ -58.442323, -34.740035, 0.0 ], [ -58.452253, -34.745541, 0.0 ], [ -58.453361, -34.74416, 0.0 ], [ -58.454759, -34.744868, 0.0 ], [ -58.458133, -34.740465, 0.0 ], [ -58.465151, -34.743836, 0.0 ], [ -58.478429, -34.750979, 0.0 ], [ -58.474063, -34.756867, 0.0 ], [ -58.473312, -34.756746, 0.0 ], [ -58.473108, -34.756759, 0.0 ], [ -58.471558, -34.757041, 0.0 ], [ -58.470662, -34.753334, 0.0 ], [ -58.470831, -34.752854, 0.0 ], [ -58.470767, -34.752704, 0.0 ], [ -58.470488, -34.752369, 0.0 ], [ -58.470295, -34.752078, 0.0 ], [ -58.469998, -34.750686, 0.0 ], [ -58.465449, -34.756803, 0.0 ] ] } }
]
}
