{
"type": "FeatureCollection",
"name": "Autobuses 552C - I a Ruta IV",
"crs": { "type": "name", "properties": { "name": "urn:ogc:def:crs:OGC:1.3:CRS84" } },
"features": [
{ "type": "Feature", "properties": { "Name": "552 C - La Noria a Ruta 4", "nombre": "" }, "geometry": { "type": "LineString", "coordinates": [ [ -58.455074, -34.706859, 0.0 ], [ -58.455393, -34.706681, 0.0 ], [ -58.455849, -34.70719, 0.0 ], [ -58.455953, -34.707367, 0.0 ], [ -58.45864, -34.706162, 0.0 ], [ -58.45899, -34.706205, 0.0 ], [ -58.459463, -34.70653, 0.0 ], [ -58.459576, -34.706619, 0.0 ], [ -58.459628, -34.706813, 0.0 ], [ -58.459329, -34.707271, 0.0 ], [ -58.457694, -34.709247, 0.0 ], [ -58.466378, -34.714092, 0.0 ], [ -58.465351, -34.715355, 0.0 ], [ -58.466414, -34.71597, 0.0 ], [ -58.46244, -34.720922, 0.0 ], [ -58.464801, -34.722245, 0.0 ], [ -58.462894, -34.724642, 0.0 ], [ -58.465534, -34.726084, 0.0 ], [ -58.465775, -34.726216, 0.0 ], [ -58.465931, -34.726366, 0.0 ], [ -58.466274, -34.726886, 0.0 ], [ -58.466636, -34.727415, 0.0 ], [ -58.46694, -34.727871, 0.0 ], [ -58.466986, -34.72802, 0.0 ], [ -58.467017, -34.728146, 0.0 ], [ -58.467016, -34.728278, 0.0 ], [ -58.466989, -34.728475, 0.0 ], [ -58.466928, -34.728627, 0.0 ], [ -58.466691, -34.728934, 0.0 ], [ -58.465867, -34.730049, 0.0 ], [ -58.464218, -34.73223, 0.0 ], [ -58.464201, -34.732288, 0.0 ], [ -58.464271, -34.732356, 0.0 ], [ -58.46428, -34.732458, 0.0 ], [ -58.464217, -34.73252, 0.0 ], [ -58.464104, -34.732609, 0.0 ], [ -58.458223, -34.740518, 0.0 ], [ -58.46011, -34.741494, 0.0 ], [ -58.464307, -34.743539, 0.0 ], [ -58.464886, -34.743774, 0.0 ], [ -58.465149, -34.743873, 0.0 ], [ -58.472126, -34.747642, 0.0 ], [ -58.472235, -34.747715, 0.0 ], [ -58.470045, -34.750572, 0.0 ], [ -58.470468, -34.752105, 0.0 ], [ -58.470566, -34.752293, 0.0 ], [ -58.470864, -34.752586, 0.0 ], [ -58.471003, -34.752798, 0.0 ], [ -58.471011, -34.752902, 0.0 ], [ -58.471, -34.752969, 0.0 ], [ -58.47075, -34.753321, 0.0 ], [ -58.471668, -34.756925, 0.0 ], [ -58.473122, -34.756665, 0.0 ], [ -58.473303, -34.756649, 0.0 ], [ -58.473466, -34.756676, 0.0 ], [ -58.473974, -34.756808, 0.0 ], [ -58.47833, -34.750941, 0.0 ], [ -58.482372, -34.753036, 0.0 ], [ -58.481894, -34.753668, 0.0 ], [ -58.484296, -34.754878, 0.0 ] ] } }
]
}
