{
"type": "FeatureCollection",
"name": "Autobuses 542 - I a Lomas",
"crs": { "type": "name", "properties": { "name": "urn:ogc:def:crs:OGC:1.3:CRS84" } },
"features": [
{ "type": "Feature", "properties": { "Name": "542 - La Noria a Lomas", "nombre": "542 - La Noria a Lomas" }, "geometry": { "type": "LineString", "coordinates": [ [ -58.454276, -34.707539, 0.0 ], [ -58.454112, -34.707641, 0.0 ], [ -58.454191, -34.70776, 0.0 ], [ -58.454311, -34.707826, 0.0 ], [ -58.45448, -34.707863, 0.0 ], [ -58.4554, -34.70757, 0.0 ], [ -58.456693, -34.707054, 0.0 ], [ -58.457091, -34.706951, 0.0 ], [ -58.457375, -34.70703, 0.0 ], [ -58.457709, -34.707401, 0.0 ], [ -58.457841, -34.70761, 0.0 ], [ -58.457814, -34.707784, 0.0 ], [ -58.457709, -34.708047, 0.0 ], [ -58.456709, -34.708796, 0.0 ], [ -58.455907, -34.709482, 0.0 ], [ -58.454872, -34.710876, 0.0 ], [ -58.454357, -34.711252, 0.0 ], [ -58.454057, -34.711508, 0.0 ], [ -58.453472, -34.712222, 0.0 ], [ -58.452844, -34.713007, 0.0 ], [ -58.451911, -34.714242, 0.0 ], [ -58.45156, -34.714665, 0.0 ], [ -58.451511, -34.714974, 0.0 ], [ -58.450331, -34.716534, 0.0 ], [ -58.449151, -34.718078, 0.0 ], [ -58.447628, -34.719965, 0.0 ], [ -58.446469, -34.721438, 0.0 ], [ -58.444613, -34.723783, 0.0 ], [ -58.443154, -34.725432, 0.0 ], [ -58.440899, -34.728558, 0.0 ], [ -58.439139, -34.730798, 0.0 ], [ -58.436834, -34.733807, 0.0 ], [ -58.435766, -34.735244, 0.0 ], [ -58.434988, -34.736196, 0.0 ], [ -58.433942, -34.738123, 0.0 ], [ -58.433436, -34.739011, 0.0 ], [ -58.432514, -34.740197, 0.0 ], [ -58.431628, -34.741321, 0.0 ], [ -58.430244, -34.743115, 0.0 ], [ -58.429944, -34.743521, 0.0 ], [ -58.42982, -34.743979, 0.0 ], [ -58.429912, -34.744742, 0.0 ], [ -58.43048, -34.74699, 0.0 ], [ -58.430641, -34.747594, 0.0 ], [ -58.431344, -34.748356, 0.0 ], [ -58.433048, -34.749319, 0.0 ], [ -58.435655, -34.750676, 0.0 ], [ -58.436202, -34.750967, 0.0 ], [ -58.436438, -34.751523, 0.0 ], [ -58.436116, -34.752166, 0.0 ], [ -58.433996, -34.755211, 0.0 ], [ -58.432897, -34.75674, 0.0 ], [ -58.43251, -34.757348, 0.0 ], [ -58.431947, -34.758671, 0.0 ], [ -58.431647, -34.759305, 0.0 ], [ -58.431277, -34.759936, 0.0 ], [ -58.430756, -34.760019, 0.0 ], [ -58.415672, -34.762289, 0.0 ], [ -58.406135, -34.763628, 0.0 ], [ -58.405641, -34.761217, 0.0 ], [ -58.397902, -34.762261, 0.0 ], [ -58.397743, -34.762208, 0.0 ], [ -58.397679, -34.761639, 0.0 ], [ -58.397736, -34.761328, 0.0 ], [ -58.39767, -34.760526, 0.0 ] ] } }
]
}
