{
"type": "FeatureCollection",
"name": "Autobuses 553 - Lomas a La Noria",
"crs": { "type": "name", "properties": { "name": "urn:ogc:def:crs:OGC:1.3:CRS84" } },
"features": [
{ "type": "Feature", "properties": { "Name": "553 - Lomas a La Noria", "nombre": "" }, "geometry": { "type": "LineString", "coordinates": [ [ -58.397638, -34.759916, 0.0 ], [ -58.397631, -34.759832, 0.0 ], [ -58.398021, -34.759752, 0.0 ], [ -58.405122, -34.75871, 0.0 ], [ -58.403879, -34.752816, 0.0 ], [ -58.419409, -34.750496, 0.0 ], [ -58.419378, -34.749368, 0.0 ], [ -58.423708, -34.748696, 0.0 ], [ -58.423968, -34.7463, 0.0 ], [ -58.432129, -34.745209, 0.0 ], [ -58.43278, -34.744486, 0.0 ], [ -58.438223, -34.747628, 0.0 ], [ -58.44038, -34.748832, 0.0 ], [ -58.441404, -34.749469, 0.0 ], [ -58.442949, -34.750355, 0.0 ], [ -58.444902, -34.752421, 0.0 ], [ -58.445147, -34.752618, 0.0 ], [ -58.446279, -34.753189, 0.0 ], [ -58.453334, -34.744105, 0.0 ], [ -58.454754, -34.744885, 0.0 ], [ -58.466722, -34.72854, 0.0 ], [ -58.466784, -34.727939, 0.0 ], [ -58.466307, -34.727184, 0.0 ], [ -58.465789, -34.72639, 0.0 ], [ -58.46543, -34.726168, 0.0 ], [ -58.462773, -34.724663, 0.0 ], [ -58.464626, -34.722255, 0.0 ], [ -58.462304, -34.720956, 0.0 ], [ -58.467244, -34.714712, 0.0 ], [ -58.456729, -34.708794, 0.0 ], [ -58.45632, -34.709016, 0.0 ], [ -58.455975, -34.709379, 0.0 ], [ -58.45527, -34.709274, 0.0 ], [ -58.454521, -34.708884, 0.0 ], [ -58.454168, -34.708637, 0.0 ], [ -58.454263, -34.708048, 0.0 ], [ -58.454526, -34.707856, 0.0 ], [ -58.45589, -34.707364, 0.0 ], [ -58.455812, -34.707196, 0.0 ], [ -58.455476, -34.706822, 0.0 ], [ -58.454748, -34.707248, 0.0 ] ] } }
]
}
