{
"type": "FeatureCollection",
"name": "Autobuses 548A - I a Santa Marta",
"crs": { "type": "name", "properties": { "name": "urn:ogc:def:crs:OGC:1.3:CRS84" } },
"features": [
{ "type": "Feature", "properties": { "Name": "548 A - Banfield a Santa Marta", "nombre": "548 A - Banfield a Santa Marta" }, "geometry": { "type": "LineString", "coordinates": [ [ -58.395947, -34.743891, 0.0 ], [ -58.39591, -34.74367, 0.0 ], [ -58.395927, -34.743548, 0.0 ], [ -58.395957, -34.743465, 0.0 ], [ -58.395991, -34.743414, 0.0 ], [ -58.396075, -34.743372, 0.0 ], [ -58.395982, -34.742853, 0.0 ], [ -58.398991, -34.742486, 0.0 ], [ -58.399426, -34.744794, 0.0 ], [ -58.405066, -34.743999, 0.0 ], [ -58.409348, -34.743313, 0.0 ], [ -58.413642, -34.742669, 0.0 ], [ -58.416949, -34.742192, 0.0 ], [ -58.418419, -34.74206, 0.0 ], [ -58.42124, -34.741796, 0.0 ], [ -58.425095, -34.741479, 0.0 ], [ -58.425669, -34.741432, 0.0 ], [ -58.4264, -34.741353, 0.0 ], [ -58.426986, -34.741325, 0.0 ], [ -58.427372, -34.741334, 0.0 ], [ -58.427868, -34.741431, 0.0 ], [ -58.428147, -34.741537, 0.0 ], [ -58.428523, -34.741724, 0.0 ], [ -58.428716, -34.74175, 0.0 ], [ -58.429048, -34.74194, 0.0 ], [ -58.429295, -34.74209, 0.0 ], [ -58.429934, -34.742491, 0.0 ], [ -58.430061, -34.742548, 0.0 ], [ -58.430143, -34.74253, 0.0 ], [ -58.430264, -34.74241, 0.0 ], [ -58.432591, -34.739207, 0.0 ], [ -58.433305, -34.738206, 0.0 ], [ -58.433648, -34.737527, 0.0 ], [ -58.432516, -34.73687, 0.0 ], [ -58.431541, -34.736286, 0.0 ], [ -58.432762, -34.73487, 0.0 ], [ -58.43278, -34.734846, 0.0 ], [ -58.435779, -34.736447, 0.0 ], [ -58.441476, -34.739498, 0.0 ], [ -58.445456, -34.741772, 0.0 ], [ -58.449736, -34.744176, 0.0 ], [ -58.452392, -34.745649, 0.0 ], [ -58.449842, -34.748903, 0.0 ] ] } }
]
}
