{
"type": "FeatureCollection",
"name": "Autobuses 551A - I a Lomas",
"crs": { "type": "name", "properties": { "name": "urn:ogc:def:crs:OGC:1.3:CRS84" } },
"features": [
{ "type": "Feature", "properties": { "Name": "551 A - Penal a Lomas", "nombre": "" }, "geometry": { "type": "LineString", "coordinates": [ [ -58.465646, -34.756334, 0.0 ], [ -58.466669, -34.754952, 0.0 ], [ -58.468629, -34.752324, 0.0 ], [ -58.470028, -34.75049, 0.0 ], [ -58.470092, -34.750679, 0.0 ], [ -58.470242, -34.75116, 0.0 ], [ -58.470424, -34.751928, 0.0 ], [ -58.470568, -34.752263, 0.0 ], [ -58.470885, -34.752545, 0.0 ], [ -58.471035, -34.752792, 0.0 ], [ -58.470785, -34.753323, 0.0 ], [ -58.470925, -34.753812, 0.0 ], [ -58.471407, -34.755694, 0.0 ], [ -58.471676, -34.756879, 0.0 ], [ -58.47321, -34.756615, 0.0 ], [ -58.473483, -34.75665, 0.0 ], [ -58.473972, -34.756774, 0.0 ], [ -58.47821, -34.75104, 0.0 ], [ -58.467344, -34.745313, 0.0 ], [ -58.464447, -34.743761, 0.0 ], [ -58.458166, -34.740636, 0.0 ], [ -58.454807, -34.745051, 0.0 ], [ -58.453397, -34.744312, 0.0 ], [ -58.452303, -34.745732, 0.0 ], [ -58.442321, -34.740223, 0.0 ], [ -58.438823, -34.744813, 0.0 ], [ -58.438198, -34.744114, 0.0 ], [ -58.436924, -34.745564, 0.0 ], [ -58.436116, -34.746551, 0.0 ], [ -58.432786, -34.744596, 0.0 ], [ -58.432185, -34.745292, 0.0 ], [ -58.427227, -34.74602, 0.0 ], [ -58.401919, -34.749561, 0.0 ], [ -58.403336, -34.756627, 0.0 ], [ -58.401879, -34.756837, 0.0 ], [ -58.402126, -34.757918, 0.0 ], [ -58.40356, -34.757702, 0.0 ], [ -58.404338, -34.761416, 0.0 ], [ -58.397904, -34.762255, 0.0 ], [ -58.397776, -34.762199, 0.0 ], [ -58.397719, -34.761638, 0.0 ], [ -58.397789, -34.76131, 0.0 ], [ -58.397674, -34.76043, 0.0 ] ] } }
]
}
