{
"type": "FeatureCollection",
"name": "Autobuses 548B - I a La Noria",
"crs": { "type": "name", "properties": { "name": "urn:ogc:def:crs:OGC:1.3:CRS84" } },
"features": [
{ "type": "Feature", "properties": { "Name": "548 B - Penal a La Noria", "nombre": "548 B - Penal a La Noria" }, "geometry": { "type": "LineString", "coordinates": [ [ -58.465319, -34.756803, 0.0 ], [ -58.475491, -34.743182, 0.0 ], [ -58.470094, -34.740354, 0.0 ], [ -58.466632, -34.74487, 0.0 ], [ -58.465006, -34.743977, 0.0 ], [ -58.463863, -34.743444, 0.0 ], [ -58.461324, -34.742224, 0.0 ], [ -58.458221, -34.740684, 0.0 ], [ -58.458019, -34.740576, 0.0 ], [ -58.461467, -34.735975, 0.0 ], [ -58.445841, -34.727949, 0.0 ], [ -58.441925, -34.725877, 0.0 ], [ -58.444544, -34.722571, 0.0 ], [ -58.44522, -34.721716, 0.0 ], [ -58.445695, -34.721264, 0.0 ], [ -58.446229, -34.720611, 0.0 ], [ -58.447532, -34.718911, 0.0 ], [ -58.449356, -34.716503, 0.0 ], [ -58.451028, -34.714655, 0.0 ], [ -58.451446, -34.71447, 0.0 ], [ -58.453678, -34.711746, 0.0 ], [ -58.454166, -34.710776, 0.0 ], [ -58.455103, -34.709621, 0.0 ], [ -58.455257, -34.709406, 0.0 ], [ -58.455175, -34.709241, 0.0 ], [ -58.45433, -34.708798, 0.0 ], [ -58.454201, -34.70859, 0.0 ], [ -58.454194, -34.708352, 0.0 ], [ -58.454215, -34.708109, 0.0 ], [ -58.454086, -34.70779, 0.0 ], [ -58.453917, -34.707566, 0.0 ], [ -58.45454, -34.7072, 0.0 ] ] } }
]
}
