{
"type": "FeatureCollection",
"name": "Autobuses 550 U - I a Lomas",
"crs": { "type": "name", "properties": { "name": "urn:ogc:def:crs:OGC:1.3:CRS84" } },
"features": [
{ "type": "Feature", "properties": { "Name": "550 U - La Noria a Lomas", "nombre": "550 U - La Noria a Lomas" }, "geometry": { "type": "LineString", "coordinates": [ [ -58.4556043, -34.7074324, 0.0 ], [ -58.4569193, -34.7069634, 0.0 ], [ -58.4572793, -34.7069614, 0.0 ], [ -58.4574623, -34.7071364, 0.0 ], [ -58.4577513, -34.7074524, 0.0 ], [ -58.4578413, -34.7076854, 0.0 ], [ -58.4577383, -34.7079744, 0.0 ], [ -58.4566573, -34.7087684, 0.0 ], [ -58.4563013, -34.7089834, 0.0 ], [ -58.4553113, -34.7101674, 0.0 ], [ -58.4546683, -34.7110604, 0.0 ], [ -58.4537003, -34.7123764, 0.0 ], [ -58.4533323, -34.7128114, 0.0 ], [ -58.4531443, -34.7128354, 0.0 ], [ -58.4527903, -34.7126464, 0.0 ], [ -58.4527263, -34.7124524, 0.0 ], [ -58.4531123, -34.7119714, 0.0 ], [ -58.4539713, -34.7109044, 0.0 ], [ -58.4503173, -34.7089024, 0.0 ], [ -58.4486223, -34.7111244, 0.0 ], [ -58.4469703, -34.7132414, 0.0 ], [ -58.4444173, -34.7164864, 0.0 ], [ -58.4439983, -34.7170154, 0.0 ], [ -58.4430113, -34.7176504, 0.0 ], [ -58.4426353, -34.7180304, 0.0 ], [ -58.4422173, -34.7185854, 0.0 ], [ -58.4417253, -34.7191934, 0.0 ], [ -58.4408083, -34.7203554, 0.0 ], [ -58.4385293, -34.7190934, 0.0 ], [ -58.4356733, -34.7228674, 0.0 ], [ -58.4335043, -34.7256214, 0.0 ], [ -58.4323993, -34.7273584, 0.0 ], [ -58.4289663, -34.7320324, 0.0 ], [ -58.4285153, -34.7327904, 0.0 ], [ -58.4269793, -34.7366434, 0.0 ], [ -58.4255743, -34.7402404, 0.0 ], [ -58.4245913, -34.7463464, 0.0 ], [ -58.4240603, -34.7463954, 0.0 ], [ -58.4238243, -34.7489344, 0.0 ], [ -58.4236153, -34.7512134, 0.0 ], [ -58.4190373, -34.7519704, 0.0 ], [ -58.4065063, -34.7538564, 0.0 ], [ -58.4059483, -34.7539274, 0.0 ], [ -58.4066613, -34.7577884, 0.0 ], [ -58.4073153, -34.7609974, 0.0 ], [ -58.3979413, -34.7622304, 0.0 ], [ -58.3977973, -34.7621964, 0.0 ], [ -58.3977553, -34.7621614, 0.0 ], [ -58.3977013, -34.7616214, 0.0 ], [ -58.3977663, -34.7612964, 0.0 ], [ -58.3977593, -34.7611824, 0.0 ], [ -58.3976293, -34.7600124, 0.0 ] ] } }
]
}
