{
"type": "FeatureCollection",
"name": "Autobuses 553 - La Noria a Lomas",
"crs": { "type": "name", "properties": { "name": "urn:ogc:def:crs:OGC:1.3:CRS84" } },
"features": [
{ "type": "Feature", "properties": { "Name": "553 - La Noria a Lomas", "nombre": "" }, "geometry": { "type": "LineString", "coordinates": [ [ -58.454743, -34.707282, 0.0 ], [ -58.454112, -34.707641, 0.0 ], [ -58.454126, -34.707693, 0.0 ], [ -58.454184, -34.707763, 0.0 ], [ -58.454234, -34.707795, 0.0 ], [ -58.454292, -34.707832, 0.0 ], [ -58.454539, -34.707871, 0.0 ], [ -58.456191, -34.707269, 0.0 ], [ -58.458447, -34.706259, 0.0 ], [ -58.458736, -34.706147, 0.0 ], [ -58.458924, -34.706182, 0.0 ], [ -58.459112, -34.706253, 0.0 ], [ -58.459486, -34.706536, 0.0 ], [ -58.459575, -34.706644, 0.0 ], [ -58.459622, -34.706886, 0.0 ], [ -58.457706, -34.709247, 0.0 ], [ -58.466391, -34.714091, 0.0 ], [ -58.46537, -34.715356, 0.0 ], [ -58.466399, -34.715961, 0.0 ], [ -58.462449, -34.720914, 0.0 ], [ -58.464833, -34.722245, 0.0 ], [ -58.462915, -34.724638, 0.0 ], [ -58.465235, -34.725965, 0.0 ], [ -58.465652, -34.726169, 0.0 ], [ -58.465802, -34.726264, 0.0 ], [ -58.465872, -34.726325, 0.0 ], [ -58.465911, -34.726367, 0.0 ], [ -58.465963, -34.726457, 0.0 ], [ -58.46631, -34.726972, 0.0 ], [ -58.466469, -34.72723, 0.0 ], [ -58.466922, -34.727864, 0.0 ], [ -58.466991, -34.728105, 0.0 ], [ -58.467032, -34.728295, 0.0 ], [ -58.466974, -34.728467, 0.0 ], [ -58.466831, -34.72874, 0.0 ], [ -58.464197, -34.732235, 0.0 ], [ -58.464183, -34.732299, 0.0 ], [ -58.464233, -34.732323, 0.0 ], [ -58.464261, -34.732378, 0.0 ], [ -58.46426, -34.732434, 0.0 ], [ -58.46423, -34.732483, 0.0 ], [ -58.464193, -34.732514, 0.0 ], [ -58.46412, -34.732549, 0.0 ], [ -58.464092, -34.732677, 0.0 ], [ -58.454809, -34.745017, 0.0 ], [ -58.453398, -34.744291, 0.0 ], [ -58.446329, -34.753347, 0.0 ], [ -58.445027, -34.752708, 0.0 ], [ -58.444824, -34.752549, 0.0 ], [ -58.44275, -34.750425, 0.0 ], [ -58.439741, -34.74871, 0.0 ], [ -58.432762, -34.744578, 0.0 ], [ -58.432177, -34.745278, 0.0 ], [ -58.424634, -34.7463, 0.0 ], [ -58.424043, -34.746384, 0.0 ], [ -58.42382, -34.748785, 0.0 ], [ -58.419609, -34.749456, 0.0 ], [ -58.417926, -34.749699, 0.0 ], [ -58.417004, -34.749818, 0.0 ], [ -58.414987, -34.750122, 0.0 ], [ -58.412374, -34.75051, 0.0 ], [ -58.407482, -34.751216, 0.0 ], [ -58.406798, -34.751306, 0.0 ], [ -58.407539, -34.75473, 0.0 ], [ -58.40779, -34.756002, 0.0 ], [ -58.401874, -34.756833, 0.0 ], [ -58.402129, -34.757929, 0.0 ], [ -58.403554, -34.757711, 0.0 ], [ -58.404341, -34.761437, 0.0 ], [ -58.397929, -34.762269, 0.0 ], [ -58.397756, -34.76221, 0.0 ], [ -58.397723, -34.76164, 0.0 ], [ -58.397766, -34.761448, 0.0 ], [ -58.397786, -34.761387, 0.0 ], [ -58.397792, -34.761277, 0.0 ], [ -58.397628, -34.759936, 0.0 ] ] } }
]
}
