{
"type": "FeatureCollection",
"name": "Autobuses 552C - V a La Noria",
"crs": { "type": "name", "properties": { "name": "urn:ogc:def:crs:OGC:1.3:CRS84" } },
"features": [
{ "type": "Feature", "properties": { "Name": "552 C - Ruta 4 a La Noria", "nombre": "" }, "geometry": { "type": "LineString", "coordinates": [ [ -58.484729, -34.754335, 0.0 ], [ -58.479891, -34.751865, 0.0 ], [ -58.478348, -34.75105, 0.0 ], [ -58.474052, -34.756878, 0.0 ], [ -58.473628, -34.756779, 0.0 ], [ -58.473397, -34.75672, 0.0 ], [ -58.473242, -34.756707, 0.0 ], [ -58.471603, -34.756998, 0.0 ], [ -58.470684, -34.75333, 0.0 ], [ -58.470701, -34.753253, 0.0 ], [ -58.47091, -34.752966, 0.0 ], [ -58.470923, -34.752829, 0.0 ], [ -58.470874, -34.752742, 0.0 ], [ -58.47078, -34.752622, 0.0 ], [ -58.47047, -34.75229, 0.0 ], [ -58.470398, -34.752184, 0.0 ], [ -58.470339, -34.751975, 0.0 ], [ -58.469997, -34.750563, 0.0 ], [ -58.472079, -34.747739, 0.0 ], [ -58.4653, -34.744155, 0.0 ], [ -58.465083, -34.743973, 0.0 ], [ -58.464816, -34.74386, 0.0 ], [ -58.458163, -34.740619, 0.0 ], [ -58.466425, -34.729102, 0.0 ], [ -58.466789, -34.728578, 0.0 ], [ -58.466872, -34.728371, 0.0 ], [ -58.466864, -34.728082, 0.0 ], [ -58.466802, -34.727878, 0.0 ], [ -58.466106, -34.72682, 0.0 ], [ -58.465794, -34.726373, 0.0 ], [ -58.465459, -34.726168, 0.0 ], [ -58.462751, -34.724662, 0.0 ], [ -58.464677, -34.722271, 0.0 ], [ -58.462322, -34.720938, 0.0 ], [ -58.467324, -34.714694, 0.0 ], [ -58.456728, -34.708807, 0.0 ], [ -58.456292, -34.709048, 0.0 ], [ -58.456039, -34.709285, 0.0 ], [ -58.455888, -34.709341, 0.0 ], [ -58.455509, -34.709359, 0.0 ], [ -58.454332, -34.708765, 0.0 ], [ -58.454184, -34.708432, 0.0 ], [ -58.454167, -34.708029, 0.0 ], [ -58.454054, -34.707737, 0.0 ], [ -58.453896, -34.707557, 0.0 ], [ -58.455076, -34.706868, 0.0 ] ] } }
]
}
