{
"type": "FeatureCollection",
"name": "Autobuses 548A - V a Banfield",
"crs": { "type": "name", "properties": { "name": "urn:ogc:def:crs:OGC:1.3:CRS84" } },
"features": [
{ "type": "Feature", "properties": { "Name": "548 A - Santa Marta a Banfield", "nombre": "548 A - Santa Marta a Banfield" }, "geometry": { "type": "LineString", "coordinates": [ [ -58.448882, -34.749927, 0.0 ], [ -58.452185, -34.745673, 0.0 ], [ -58.45153, -34.74531, 0.0 ], [ -58.450725, -34.744926, 0.0 ], [ -58.446455, -34.742581, 0.0 ], [ -58.441201, -34.739612, 0.0 ], [ -58.433133, -34.735222, 0.0 ], [ -58.431687, -34.734371, 0.0 ], [ -58.430571, -34.735662, 0.0 ], [ -58.431939, -34.736385, 0.0 ], [ -58.433658, -34.73739, 0.0 ], [ -58.434055, -34.737795, 0.0 ], [ -58.433588, -34.738812, 0.0 ], [ -58.432206, -34.740602, 0.0 ], [ -58.430426, -34.742846, 0.0 ], [ -58.430297, -34.743066, 0.0 ], [ -58.427839, -34.741695, 0.0 ], [ -58.426933, -34.741554, 0.0 ], [ -58.424613, -34.741704, 0.0 ], [ -58.418051, -34.742292, 0.0 ], [ -58.410913, -34.743315, 0.0 ], [ -58.399508, -34.74491, 0.0 ], [ -58.396408, -34.74536, 0.0 ], [ -58.396196, -34.74406, 0.0 ], [ -58.396067, -34.744022, 0.0 ], [ -58.395978, -34.743958, 0.0 ], [ -58.395946, -34.743921, 0.0 ] ] } }
]
}
