{
"type": "FeatureCollection",
"name": "Autobuses 551C - V a La Noria",
"crs": { "type": "name", "properties": { "name": "urn:ogc:def:crs:OGC:1.3:CRS84" } },
"features": [
{ "type": "Feature", "properties": { "Name": "551 C - Ruta 4 a La Noria", "nombre": "" }, "geometry": { "type": "LineString", "coordinates": [ [ -58.484754, -34.754335, 0.0 ], [ -58.478358, -34.751104, 0.0 ], [ -58.474031, -34.756879, 0.0 ], [ -58.473288, -34.756718, 0.0 ], [ -58.471567, -34.757024, 0.0 ], [ -58.470642, -34.753334, 0.0 ], [ -58.470884, -34.752966, 0.0 ], [ -58.470851, -34.752708, 0.0 ], [ -58.470546, -34.752406, 0.0 ], [ -58.470393, -34.752216, 0.0 ], [ -58.470003, -34.750665, 0.0 ], [ -58.465402, -34.756863, 0.0 ], [ -58.465304, -34.756803, 0.0 ], [ -58.471999, -34.747795, 0.0 ], [ -58.48059, -34.735808, 0.0 ], [ -58.47515, -34.733579, 0.0 ], [ -58.47265, -34.732308, 0.0 ], [ -58.479065, -34.723541, 0.0 ], [ -58.461296, -34.706473, 0.0 ], [ -58.46076, -34.706151, 0.0 ], [ -58.45978, -34.706834, 0.0 ], [ -58.459217, -34.70754, 0.0 ], [ -58.4586, -34.707946, 0.0 ], [ -58.457343, -34.708311, 0.0 ], [ -58.456002, -34.709537, 0.0 ], [ -58.454138, -34.708691, 0.0 ], [ -58.454199, -34.708094, 0.0 ], [ -58.454077, -34.70775, 0.0 ], [ -58.453889, -34.707582, 0.0 ], [ -58.454551, -34.707221, 0.0 ] ] } }
]
}
