{
"type": "FeatureCollection",
"name": "Autobuses 552A - I a Universidad",
"crs": { "type": "name", "properties": { "name": "urn:ogc:def:crs:OGC:1.3:CRS84" } },
"features": [
{ "type": "Feature", "properties": { "Name": "552 A - Banfield al Cruce", "nombre": "" }, "geometry": { "type": "LineString", "coordinates": [ [ -58.396035, -34.743244, 0.0 ], [ -58.395999, -34.742857, 0.0 ], [ -58.39897, -34.7425, 0.0 ], [ -58.399955, -34.74732, 0.0 ], [ -58.4004, -34.749662, 0.0 ], [ -58.417651, -34.74715, 0.0 ], [ -58.43212, -34.745192, 0.0 ], [ -58.432785, -34.744443, 0.0 ], [ -58.438219, -34.747651, 0.0 ], [ -58.440459, -34.748844, 0.0 ], [ -58.442894, -34.750316, 0.0 ], [ -58.44469, -34.752183, 0.0 ], [ -58.445098, -34.752606, 0.0 ], [ -58.446256, -34.753166, 0.0 ], [ -58.449735, -34.748835, 0.0 ], [ -58.453353, -34.750696, 0.0 ], [ -58.445812, -34.760689, 0.0 ], [ -58.448097, -34.761828, 0.0 ], [ -58.441825, -34.770096, 0.0 ], [ -58.445464, -34.771941, 0.0 ], [ -58.457557, -34.778268, 0.0 ], [ -58.45782, -34.778405, 0.0 ], [ -58.458037, -34.778407, 0.0 ], [ -58.458292, -34.778341, 0.0 ], [ -58.458453, -34.778268, 0.0 ], [ -58.458684, -34.777894, 0.0 ], [ -58.459135, -34.777318, 0.0 ] ] } }
]
}
