{
"type": "FeatureCollection",
"name": "Autobuses 551C - I a Ruta 4",
"crs": { "type": "name", "properties": { "name": "urn:ogc:def:crs:OGC:1.3:CRS84" } },
"features": [
{ "type": "Feature", "properties": { "Name": "551 C - La Noria a Ruta 4", "nombre": "" }, "geometry": { "type": "LineString", "coordinates": [ [ -58.454602, -34.707176, 0.0 ], [ -58.45538, -34.706722, 0.0 ], [ -58.455842, -34.707249, 0.0 ], [ -58.455904, -34.707367, 0.0 ], [ -58.457983, -34.706473, 0.0 ], [ -58.458715, -34.70619, 0.0 ], [ -58.45912, -34.70632, 0.0 ], [ -58.459276, -34.706453, 0.0 ], [ -58.459593, -34.706536, 0.0 ], [ -58.460271, -34.706254, 0.0 ], [ -58.460871, -34.705932, 0.0 ], [ -58.461397, -34.706016, 0.0 ], [ -58.468615, -34.71359, 0.0 ], [ -58.479366, -34.723507, 0.0 ], [ -58.472834, -34.732275, 0.0 ], [ -58.475073, -34.733325, 0.0 ], [ -58.480811, -34.735774, 0.0 ], [ -58.465433, -34.75693, 0.0 ], [ -58.465235, -34.756824, 0.0 ], [ -58.470029, -34.750481, 0.0 ], [ -58.470397, -34.751862, 0.0 ], [ -58.470522, -34.75223, 0.0 ], [ -58.470888, -34.752583, 0.0 ], [ -58.471015, -34.752796, 0.0 ], [ -58.471023, -34.752917, 0.0 ], [ -58.470765, -34.75332, 0.0 ], [ -58.471665, -34.756903, 0.0 ], [ -58.473084, -34.756656, 0.0 ], [ -58.473315, -34.756636, 0.0 ], [ -58.473657, -34.756714, 0.0 ], [ -58.473968, -34.756789, 0.0 ], [ -58.47832, -34.750898, 0.0 ], [ -58.48242, -34.753008, 0.0 ], [ -58.481916, -34.753669, 0.0 ], [ -58.484303, -34.75485, 0.0 ] ] } }
]
}
