{
"type": "FeatureCollection",
"name": "Autobuses 550L - I a Lomas",
"crs": { "type": "name", "properties": { "name": "urn:ogc:def:crs:OGC:1.3:CRS84" } },
"features": [
{ "type": "Feature", "properties": { "Name": "550 L - La Noria a Lomas", "nombre": "" }, "geometry": { "type": "LineString", "coordinates": [ [ -58.455061, -34.7076, 0.0 ], [ -58.457476, -34.706762, 0.0 ], [ -58.458044, -34.706471, 0.0 ], [ -58.458547, -34.705808, 0.0 ], [ -58.458944, -34.705575, 0.0 ], [ -58.459534, -34.705262, 0.0 ], [ -58.459582, -34.705041, 0.0 ], [ -58.459357, -34.70445, 0.0 ], [ -58.456411, -34.701026, 0.0 ], [ -58.450032, -34.693481, 0.0 ], [ -58.448816, -34.693999, 0.0 ], [ -58.448269, -34.694317, 0.0 ], [ -58.447733, -34.694987, 0.0 ], [ -58.447175, -34.695737, 0.0 ], [ -58.446082, -34.696752, 0.0 ], [ -58.444977, -34.697634, 0.0 ], [ -58.443464, -34.698834, 0.0 ], [ -58.441984, -34.700774, 0.0 ], [ -58.439892, -34.703535, 0.0 ], [ -58.439259, -34.704373, 0.0 ], [ -58.440385, -34.705114, 0.0 ], [ -58.43712, -34.70939, 0.0 ], [ -58.432399, -34.715696, 0.0 ], [ -58.433057, -34.715996, 0.0 ], [ -58.429228, -34.720977, 0.0 ], [ -58.423567, -34.728277, 0.0 ], [ -58.418632, -34.734749, 0.0 ], [ -58.418403, -34.734987, 0.0 ], [ -58.417564, -34.734598, 0.0 ], [ -58.418092, -34.738787, 0.0 ], [ -58.418537, -34.741899, 0.0 ], [ -58.419234, -34.747118, 0.0 ], [ -58.413537, -34.747902, 0.0 ], [ -58.41482, -34.7538, 0.0 ], [ -58.406103, -34.755062, 0.0 ], [ -58.406336, -34.756195, 0.0 ], [ -58.404755, -34.756436, 0.0 ], [ -58.401892, -34.756831, 0.0 ], [ -58.402121, -34.757925, 0.0 ], [ -58.403547, -34.75771, 0.0 ], [ -58.40432, -34.761418, 0.0 ], [ -58.398405, -34.762178, 0.0 ], [ -58.397923, -34.762253, 0.0 ], [ -58.397765, -34.762221, 0.0 ], [ -58.397702, -34.761649, 0.0 ], [ -58.39778, -34.76134, 0.0 ], [ -58.397707, -34.760676, 0.0 ] ] } }
]
}
