{
"type": "FeatureCollection",
"name": "Autobuses 548B - V al Penal",
"crs": { "type": "name", "properties": { "name": "urn:ogc:def:crs:OGC:1.3:CRS84" } },
"features": [
{ "type": "Feature", "properties": { "Name": "548 B - La Noria al Penal", "nombre": "548 B - La Noria al Penal" }, "geometry": { "type": "LineString", "coordinates": [ [ -58.454766, -34.707261, 0.0 ], [ -58.45551, -34.706814, 0.0 ], [ -58.455852, -34.707182, 0.0 ], [ -58.455889, -34.707244, 0.0 ], [ -58.455955, -34.707361, 0.0 ], [ -58.456823, -34.707045, 0.0 ], [ -58.457116, -34.706964, 0.0 ], [ -58.457375, -34.70703, 0.0 ], [ -58.45769, -34.707339, 0.0 ], [ -58.457841, -34.707586, 0.0 ], [ -58.457854, -34.707686, 0.0 ], [ -58.457764, -34.707929, 0.0 ], [ -58.456293, -34.709123, 0.0 ], [ -58.45588, -34.709555, 0.0 ], [ -58.454539, -34.711208, 0.0 ], [ -58.454057, -34.711508, 0.0 ], [ -58.45353, -34.712112, 0.0 ], [ -58.452412, -34.713604, 0.0 ], [ -58.45155, -34.714645, 0.0 ], [ -58.45156, -34.714931, 0.0 ], [ -58.449876, -34.717113, 0.0 ], [ -58.44639, -34.721595, 0.0 ], [ -58.442787, -34.726143, 0.0 ], [ -58.44938, -34.729554, 0.0 ], [ -58.453078, -34.731458, 0.0 ], [ -58.456895, -34.73346, 0.0 ], [ -58.460897, -34.735541, 0.0 ], [ -58.461616, -34.73595, 0.0 ], [ -58.458258, -34.740503, 0.0 ], [ -58.459786, -34.741303, 0.0 ], [ -58.464551, -34.743579, 0.0 ], [ -58.465205, -34.743884, 0.0 ], [ -58.465908, -34.744316, 0.0 ], [ -58.466637, -34.744681, 0.0 ], [ -58.468514, -34.742201, 0.0 ], [ -58.470074, -34.740237, 0.0 ], [ -58.47263, -34.74157, 0.0 ], [ -58.474443, -34.742531, 0.0 ], [ -58.475564, -34.743109, 0.0 ], [ -58.475678, -34.74321, 0.0 ], [ -58.472282, -34.747718, 0.0 ], [ -58.473569, -34.748344, 0.0 ], [ -58.478406, -34.750994, 0.0 ], [ -58.476031, -34.754213, 0.0 ], [ -58.474008, -34.756876, 0.0 ], [ -58.473376, -34.756729, 0.0 ], [ -58.47317, -34.756722, 0.0 ], [ -58.472778, -34.756795, 0.0 ], [ -58.471584, -34.757014, 0.0 ], [ -58.470924, -34.754352, 0.0 ], [ -58.470662, -34.753334, 0.0 ], [ -58.470919, -34.752928, 0.0 ], [ -58.470892, -34.752743, 0.0 ], [ -58.470457, -34.752267, 0.0 ], [ -58.470382, -34.752113, 0.0 ], [ -58.470259, -34.75165, 0.0 ], [ -58.470016, -34.75063, 0.0 ], [ -58.465384, -34.756858, 0.0 ] ] } }
]
}
