{
"type": "FeatureCollection",
"name": "Autobuses 542 - V a La Noria",
"crs": { "type": "name", "properties": { "name": "urn:ogc:def:crs:OGC:1.3:CRS84" } },
"features": [
{ "type": "Feature", "properties": { "Name": "542 - Lomas a La Noria", "nombre": "542 - Lomas a La Noria" }, "geometry": { "type": "LineString", "coordinates": [ [ -58.397666, -34.76052, 0.0 ], [ -58.397605, -34.7598, 0.0 ], [ -58.403863, -34.758896, 0.0 ], [ -58.4048166, -34.7637086, 0.0 ], [ -58.429771, -34.759987, 0.0 ], [ -58.430426, -34.759916, 0.0 ], [ -58.431048, -34.759493, 0.0 ], [ -58.431381, -34.75885, 0.0 ], [ -58.432058, -34.757226, 0.0 ], [ -58.433829, -34.754772, 0.0 ], [ -58.4356, -34.752105, 0.0 ], [ -58.435782, -34.751589, 0.0 ], [ -58.435567, -34.751113, 0.0 ], [ -58.434966, -34.750814, 0.0 ], [ -58.432414, -34.749496, 0.0 ], [ -58.43103, -34.748781, 0.0 ], [ -58.430301, -34.748032, 0.0 ], [ -58.430043, -34.747486, 0.0 ], [ -58.429411, -34.7446, 0.0 ], [ -58.429358, -34.744023, 0.0 ], [ -58.429438, -34.74356, 0.0 ], [ -58.429214, -34.742917, 0.0 ], [ -58.428897, -34.742481, 0.0 ], [ -58.429267, -34.742088, 0.0 ], [ -58.429975, -34.742494, 0.0 ], [ -58.430104, -34.742529, 0.0 ], [ -58.430303, -34.742353, 0.0 ], [ -58.431379, -34.740934, 0.0 ], [ -58.43305, -34.738658, 0.0 ], [ -58.43357, -34.737714, 0.0 ], [ -58.434236, -34.736374, 0.0 ], [ -58.434831, -34.735276, 0.0 ], [ -58.437397, -34.731929, 0.0 ], [ -58.440078, -34.728469, 0.0 ], [ -58.441773, -34.726121, 0.0 ], [ -58.44416, -34.723026, 0.0 ], [ -58.44518, -34.721703, 0.0 ], [ -58.445727, -34.721201, 0.0 ], [ -58.446253, -34.72053, 0.0 ], [ -58.447982, -34.71843, 0.0 ], [ -58.449527, -34.716331, 0.0 ], [ -58.450485, -34.715255, 0.0 ], [ -58.451061, -34.714589, 0.0 ], [ -58.451426, -34.7145, 0.0 ], [ -58.452584, -34.712966, 0.0 ], [ -58.45356, -34.711864, 0.0 ], [ -58.453679, -34.71162, 0.0 ], [ -58.454102, -34.710941, 0.0 ], [ -58.454768, -34.710015, 0.0 ], [ -58.455224, -34.709446, 0.0 ], [ -58.455116, -34.709256, 0.0 ], [ -58.45429, -34.708809, 0.0 ], [ -58.454191, -34.70861, 0.0 ], [ -58.454135, -34.708294, 0.0 ], [ -58.454277, -34.707998, 0.0 ], [ -58.454537, -34.707824, 0.0 ], [ -58.455882, -34.707343, 0.0 ], [ -58.455463, -34.706838, 0.0 ], [ -58.454295, -34.707528, 0.0 ] ] } }
]
}
