{
"type": "FeatureCollection",
"name": "Autobuses 552B - I a Banfield",
"crs": { "type": "name", "properties": { "name": "urn:ogc:def:crs:OGC:1.3:CRS84" } },
"features": [
{ "type": "Feature", "properties": { "Name": "552 B - Restelli a Banfield", "nombre": "" }, "geometry": { "type": "LineString", "coordinates": [ [ -58.484676, -34.754317, 0.0 ], [ -58.478329, -34.751077, 0.0 ], [ -58.474024, -34.756868, 0.0 ], [ -58.473387, -34.75671, 0.0 ], [ -58.473254, -34.756699, 0.0 ], [ -58.473105, -34.756718, 0.0 ], [ -58.472958, -34.756753, 0.0 ], [ -58.471597, -34.75699, 0.0 ], [ -58.470695, -34.753321, 0.0 ], [ -58.470703, -34.753261, 0.0 ], [ -58.47093, -34.752955, 0.0 ], [ -58.470942, -34.752904, 0.0 ], [ -58.47094, -34.752827, 0.0 ], [ -58.470896, -34.75273, 0.0 ], [ -58.470657, -34.752494, 0.0 ], [ -58.470466, -34.75226, 0.0 ], [ -58.470421, -34.752164, 0.0 ], [ -58.470359, -34.752013, 0.0 ], [ -58.470001, -34.750553, 0.0 ], [ -58.472076, -34.747726, 0.0 ], [ -58.464671, -34.743855, 0.0 ], [ -58.458165, -34.740587, 0.0 ], [ -58.451363, -34.749649, 0.0 ], [ -58.451309, -34.74972, 0.0 ], [ -58.449779, -34.748959, 0.0 ], [ -58.446308, -34.753333, 0.0 ], [ -58.445032, -34.75267, 0.0 ], [ -58.444985, -34.752641, 0.0 ], [ -58.444785, -34.752468, 0.0 ], [ -58.442964, -34.750531, 0.0 ], [ -58.442794, -34.750403, 0.0 ], [ -58.440517, -34.749079, 0.0 ], [ -58.440251, -34.748898, 0.0 ], [ -58.43942, -34.748444, 0.0 ], [ -58.432775, -34.744572, 0.0 ], [ -58.432169, -34.745272, 0.0 ], [ -58.429578, -34.745617, 0.0 ], [ -58.397424, -34.750143, 0.0 ], [ -58.396038, -34.743259, 0.0 ] ] } }
]
}
