{
"type": "FeatureCollection",
"name": "Autobuses 550 U - V a La Noria",
"crs": { "type": "name", "properties": { "name": "urn:ogc:def:crs:OGC:1.3:CRS84" } },
"features": [
{ "type": "Feature", "properties": { "Name": "550 U - Lomas a La Noria", "nombre": "" }, "geometry": { "type": "LineString", "coordinates": [ [ -58.39764, -34.760017, 0.0 ], [ -58.39762, -34.759825, 0.0 ], [ -58.399624, -34.759474, 0.0 ], [ -58.402156, -34.759127, 0.0 ], [ -58.403936, -34.758928, 0.0 ], [ -58.405135, -34.758718, 0.0 ], [ -58.404643, -34.756444, 0.0 ], [ -58.404338, -34.754964, 0.0 ], [ -58.404137, -34.753952, 0.0 ], [ -58.405862, -34.753723, 0.0 ], [ -58.412782, -34.752705, 0.0 ], [ -58.420228, -34.751488, 0.0 ], [ -58.423468, -34.751074, 0.0 ], [ -58.423986, -34.746288, 0.0 ], [ -58.42441, -34.746248, 0.0 ], [ -58.425278, -34.74027, 0.0 ], [ -58.428046, -34.733203, 0.0 ], [ -58.428394, -34.732458, 0.0 ], [ -58.42892, -34.731603, 0.0 ], [ -58.429188, -34.731312, 0.0 ], [ -58.435455, -34.722527, 0.0 ], [ -58.43848, -34.71877, 0.0 ], [ -58.440819, -34.720181, 0.0 ], [ -58.441554, -34.719233, 0.0 ], [ -58.442736, -34.71777, 0.0 ], [ -58.442953, -34.717561, 0.0 ], [ -58.443946, -34.716926, 0.0 ], [ -58.444305, -34.716516, 0.0 ], [ -58.444879, -34.715731, 0.0 ], [ -58.445696, -34.71468, 0.0 ], [ -58.447418, -34.712431, 0.0 ], [ -58.450351, -34.708734, 0.0 ], [ -58.453521, -34.710525, 0.0 ], [ -58.454062, -34.710825, 0.0 ], [ -58.454768, -34.710015, 0.0 ], [ -58.455168, -34.709432, 0.0 ], [ -58.454138, -34.708691, 0.0 ], [ -58.454114, -34.708318, 0.0 ], [ -58.454311, -34.707826, 0.0 ], [ -58.455719, -34.707408, 0.0 ] ] } }
]
}
