{
"type": "FeatureCollection",
"name": "Autobuses 552B - V a La Noria",
"crs": { "type": "name", "properties": { "name": "urn:ogc:def:crs:OGC:1.3:CRS84" } },
"features": [
{ "type": "Feature", "properties": { "Name": "552 B - Banfield a Restelli", "nombre": "" }, "geometry": { "type": "LineString", "coordinates": [ [ -58.396051, -34.743289, 0.0 ], [ -58.395994, -34.742859, 0.0 ], [ -58.398984, -34.742495, 0.0 ], [ -58.400414, -34.74964, 0.0 ], [ -58.424255, -34.746209, 0.0 ], [ -58.432122, -34.745203, 0.0 ], [ -58.432778, -34.744467, 0.0 ], [ -58.436519, -34.746621, 0.0 ], [ -58.43823, -34.747645, 0.0 ], [ -58.440349, -34.748771, 0.0 ], [ -58.442876, -34.750322, 0.0 ], [ -58.44494, -34.75247, 0.0 ], [ -58.445133, -34.752617, 0.0 ], [ -58.446257, -34.753181, 0.0 ], [ -58.449708, -34.748824, 0.0 ], [ -58.451276, -34.749611, 0.0 ], [ -58.458102, -34.74044, 0.0 ], [ -58.460221, -34.741532, 0.0 ], [ -58.464596, -34.743635, 0.0 ], [ -58.466639, -34.744714, 0.0 ], [ -58.472212, -34.747716, 0.0 ], [ -58.470059, -34.750575, 0.0 ], [ -58.470528, -34.752203, 0.0 ], [ -58.470992, -34.752731, 0.0 ], [ -58.471029, -34.752871, 0.0 ], [ -58.470985, -34.753001, 0.0 ], [ -58.470755, -34.753316, 0.0 ], [ -58.471655, -34.756915, 0.0 ], [ -58.473043, -34.756675, 0.0 ], [ -58.473327, -34.756623, 0.0 ], [ -58.473967, -34.756798, 0.0 ], [ -58.478333, -34.750968, 0.0 ], [ -58.482401, -34.753023, 0.0 ], [ -58.481883, -34.753674, 0.0 ], [ -58.484291, -34.754889, 0.0 ] ] } }
]
}
