{
"type": "FeatureCollection",
"name": "Autobuses 550L - V a La Noria",
"crs": { "type": "name", "properties": { "name": "urn:ogc:def:crs:OGC:1.3:CRS84" } },
"features": [
{ "type": "Feature", "properties": { "Name": "550 L - Lomas a La Noria", "nombre": "" }, "geometry": { "type": "LineString", "coordinates": [ [ -58.3977, -34.760675, 0.0 ], [ -58.397626, -34.759828, 0.0 ], [ -58.398136, -34.759709, 0.0 ], [ -58.405147, -34.758735, 0.0 ], [ -58.404904, -34.757527, 0.0 ], [ -58.410685, -34.756689, 0.0 ], [ -58.409675, -34.752081, 0.0 ], [ -58.409198, -34.749815, 0.0 ], [ -58.408905, -34.7484, 0.0 ], [ -58.414951, -34.747485, 0.0 ], [ -58.418986, -34.746956, 0.0 ], [ -58.417382, -34.734338, 0.0 ], [ -58.418337, -34.734709, 0.0 ], [ -58.431246, -34.717993, 0.0 ], [ -58.432797, -34.716042, 0.0 ], [ -58.432234, -34.715733, 0.0 ], [ -58.438063, -34.70789, 0.0 ], [ -58.438203, -34.707749, 0.0 ], [ -58.43698, -34.707132, 0.0 ], [ -58.439011, -34.704372, 0.0 ], [ -58.441071, -34.701646, 0.0 ], [ -58.442702, -34.699556, 0.0 ], [ -58.443389, -34.698599, 0.0 ], [ -58.445101, -34.6973, 0.0 ], [ -58.447065, -34.695501, 0.0 ], [ -58.448094, -34.694275, 0.0 ], [ -58.448668, -34.693847, 0.0 ], [ -58.449237, -34.693582, 0.0 ], [ -58.449892, -34.693326, 0.0 ], [ -58.4502, -34.693248, 0.0 ], [ -58.451557, -34.694836, 0.0 ], [ -58.453789, -34.697438, 0.0 ], [ -58.455983, -34.700098, 0.0 ], [ -58.458504, -34.703017, 0.0 ], [ -58.458976, -34.703594, 0.0 ], [ -58.459185, -34.703828, 0.0 ], [ -58.459555, -34.704088, 0.0 ], [ -58.459797, -34.704374, 0.0 ], [ -58.459974, -34.70474, 0.0 ], [ -58.459931, -34.705023, 0.0 ], [ -58.459475, -34.705457, 0.0 ], [ -58.458907, -34.705828, 0.0 ], [ -58.458762, -34.705986, 0.0 ], [ -58.458773, -34.706097, 0.0 ], [ -58.458996, -34.706196, 0.0 ], [ -58.459533, -34.706618, 0.0 ], [ -58.459582, -34.706852, 0.0 ], [ -58.458965, -34.707615, 0.0 ], [ -58.458728, -34.707814, 0.0 ], [ -58.458027, -34.707761, 0.0 ], [ -58.457622, -34.708014, 0.0 ], [ -58.456694, -34.708679, 0.0 ], [ -58.455884, -34.709446, 0.0 ], [ -58.455069, -34.709301, 0.0 ], [ -58.454184, -34.708692, 0.0 ], [ -58.454299, -34.707932, 0.0 ], [ -58.455613, -34.707421, 0.0 ] ] } }
]
}
