{
"type": "FeatureCollection",
"name": "Autobuses 540 - I a Lomas",
"crs": { "type": "name", "properties": { "name": "urn:ogc:def:crs:OGC:1.3:CRS84" } },
"features": [
{ "type": "Feature", "properties": { "Name": "540 - La Noria a Lomas", "nombre": "540 - La Noria a Lomas" }, "geometry": { "type": "LineString", "coordinates": [ [ -58.454424, -34.707445, 0.0 ], [ -58.454089, -34.707637, 0.0 ], [ -58.454116, -34.707716, 0.0 ], [ -58.454223, -34.707813, 0.0 ], [ -58.454462, -34.707895, 0.0 ], [ -58.456105, -34.707271, 0.0 ], [ -58.458044, -34.706471, 0.0 ], [ -58.45864, -34.706173, 0.0 ], [ -58.458996, -34.706196, 0.0 ], [ -58.459422, -34.706503, 0.0 ], [ -58.459593, -34.706536, 0.0 ], [ -58.459864, -34.706448, 0.0 ], [ -58.460223, -34.706234, 0.0 ], [ -58.460608, -34.70603, 0.0 ], [ -58.460833, -34.705969, 0.0 ], [ -58.461313, -34.706058, 0.0 ], [ -58.461552, -34.706225, 0.0 ], [ -58.468217, -34.713166, 0.0 ], [ -58.474467, -34.719017, 0.0 ], [ -58.471318, -34.721449, 0.0 ], [ -58.470138, -34.72241, 0.0 ], [ -58.468981, -34.723856, 0.0 ], [ -58.466417, -34.727074, 0.0 ], [ -58.466957, -34.727857, 0.0 ], [ -58.467086, -34.728307, 0.0 ], [ -58.466893, -34.72873, 0.0 ], [ -58.464244, -34.732206, 0.0 ], [ -58.464314, -34.732471, 0.0 ], [ -58.464061, -34.732797, 0.0 ], [ -58.454865, -34.745055, 0.0 ], [ -58.453403, -34.744337, 0.0 ], [ -58.443924, -34.756574, 0.0 ], [ -58.443854, -34.756662, 0.0 ], [ -58.442384, -34.755938, 0.0 ], [ -58.434673, -34.766044, 0.0 ], [ -58.436808, -34.767203, 0.0 ], [ -58.437358, -34.767702, 0.0 ], [ -58.437338, -34.768076, 0.0 ], [ -58.436736, -34.768833, 0.0 ], [ -58.435306, -34.76809, 0.0 ], [ -58.433869, -34.767879, 0.0 ], [ -58.433462, -34.767769, 0.0 ], [ -58.432979, -34.767518, 0.0 ], [ -58.431487, -34.766685, 0.0 ], [ -58.430115, -34.76587, 0.0 ], [ -58.42952, -34.765495, 0.0 ], [ -58.429225, -34.765345, 0.0 ], [ -58.428999, -34.765301, 0.0 ], [ -58.428662, -34.765315, 0.0 ], [ -58.427804, -34.765425, 0.0 ], [ -58.416792, -34.767038, 0.0 ], [ -58.409556, -34.768054, 0.0 ], [ -58.403267, -34.764686, 0.0 ], [ -58.402711, -34.761686, 0.0 ], [ -58.397867, -34.762247, 0.0 ], [ -58.397769, -34.762204, 0.0 ], [ -58.397729, -34.762019, 0.0 ], [ -58.397683, -34.761622, 0.0 ], [ -58.397762, -34.761276, 0.0 ], [ -58.397659, -34.760228, 0.0 ] ] } }
]
}
