{
"type": "FeatureCollection",
"name": "EVG 266 - 7:8 V",
"crs": { "type": "name", "properties": { "name": "urn:ogc:def:crs:OGC:1.3:CRS84" } },
"features": [
{ "type": "Feature", "properties": { "Name": "266 RAMAL 7/8 - Desde Jujuy", "Descripci__n": "", "nombre": "" }, "geometry": { "type": "LineString", "coordinates": [ [ -58.3574431, -34.765021, 0.0 ], [ -58.3579581, -34.7643203, 0.0 ], [ -58.359212, -34.7629123, 0.0 ], [ -58.3606372, -34.7609213, 0.0 ], [ -58.3686626, -34.7648536, 0.0 ], [ -58.3687217, -34.7647611, 0.0 ], [ -58.3683891, -34.7640604, 0.0 ], [ -58.3682163, -34.7636253, 0.0 ], [ -58.3694099, -34.7622415, 0.0 ], [ -58.3684142, -34.7569441, 0.0 ], [ -58.3683605, -34.7565122, 0.0 ], [ -58.3763896, -34.7606297, 0.0 ], [ -58.37652, -34.760695, 0.0 ], [ -58.3754766, -34.7621317, 0.0 ], [ -58.3898735, -34.7695645, 0.0 ], [ -58.393583, -34.7651093, 0.0 ], [ -58.3941463, -34.7649418, 0.0 ], [ -58.3965134, -34.7647176, 0.0 ], [ -58.3961789, -34.760928, 0.0 ], [ -58.3944408, -34.7513112, 0.0 ], [ -58.3934323, -34.7457619, 0.0 ], [ -58.3932791, -34.7443888, 0.0 ], [ -58.39482, -34.7441707, 0.0 ], [ -58.3947596, -34.7439095, 0.0 ], [ -58.3949789, -34.7439273, 0.0 ], [ -58.3950647, -34.7439956, 0.0 ], [ -58.3952525, -34.7449587, 0.0 ] ] } }
]
}
