{
"type": "FeatureCollection",
"name": "EVG 564 - 3 Desde Estacion Temperley",
"crs": { "type": "name", "properties": { "name": "urn:ogc:def:crs:OGC:1.3:CRS84" } },
"features": [
{ "type": "Feature", "properties": { "Name": "564 RAMAL 3 - Desde Estacion Temperley" }, "geometry": { "type": "LineString", "coordinates": [ [ -58.3955304, -34.7760052, 0.0 ], [ -58.3927658, -34.7757612, 0.0 ], [ -58.3914167, -34.775, 0.0 ], [ -58.387076, -34.7802702, 0.0 ], [ -58.387291, -34.7804152, 0.0 ], [ -58.3860781, -34.781971, 0.0 ], [ -58.3773586, -34.7776733, 0.0 ], [ -58.3770287, -34.7781624, 0.0 ], [ -58.3767937, -34.7782141, 0.0 ], [ -58.3613764, -34.7703708, 0.0 ], [ -58.3595739, -34.7699301, 0.0 ], [ -58.3563768, -34.7681498, 0.0 ], [ -58.3409272, -34.7601117, 0.0 ], [ -58.3424507, -34.7584722, 0.0 ], [ -58.3458625, -34.7602527, 0.0 ], [ -58.3468925, -34.7586485, 0.0 ], [ -58.356968, -34.7637993, 0.0 ], [ -58.3578251, -34.7620772, 0.0 ], [ -58.3670278, -34.7666469, 0.0 ], [ -58.3685278, -34.76475, 0.0 ], [ -58.3691171, -34.7640291, 0.0 ], [ -58.3716599, -34.7653688, 0.0 ], [ -58.3775285, -34.75644, 0.0 ], [ -58.3871845, -34.7614819, 0.0 ], [ -58.3874205, -34.7609971, 0.0 ], [ -58.3959929, -34.7599129, 0.0 ] ] } }
]
}
