{
"type": "FeatureCollection",
"name": "EVG 564 - 9 V",
"crs": { "type": "name", "properties": { "name": "urn:ogc:def:crs:OGC:1.3:CRS84" } },
"features": [
{ "type": "Feature", "properties": { "Name": "564 RAMAL 9 - Hacia Estacion Lomas" }, "geometry": { "type": "LineString", "coordinates": [ [ -58.3395367, -34.7504187, 0.0 ], [ -58.3404165, -34.7506722, 0.0 ], [ -58.3412748, -34.7495923, 0.0 ], [ -58.3417817, -34.7498678, 0.0 ], [ -58.3424898, -34.7476573, 0.0 ], [ -58.3432301, -34.7464143, 0.0 ], [ -58.3438417, -34.7448804, 0.0 ], [ -58.3447697, -34.7451052, 0.0 ], [ -58.3448341, -34.745039, 0.0 ], [ -58.3455556, -34.7450897, 0.0 ], [ -58.347932, -34.7460617, 0.0 ], [ -58.3491659, -34.7466788, 0.0 ], [ -58.3526742, -34.74853, 0.0 ], [ -58.3527895, -34.7486204, 0.0 ], [ -58.3500912, -34.7521928, 0.0 ], [ -58.3557949, -34.7550698, 0.0 ], [ -58.3582598, -34.7563127, 0.0 ], [ -58.3594167, -34.7550833, 0.0 ], [ -58.3599872, -34.7562973, 0.0 ], [ -58.3601642, -34.7565176, 0.0 ], [ -58.3642948, -34.75847, 0.0 ], [ -58.3651156, -34.7573153, 0.0 ], [ -58.3687956, -34.7591289, 0.0 ], [ -58.3687124, -34.7585582, 0.0 ], [ -58.3696803, -34.7571472, 0.0 ], [ -58.3763751, -34.7606069, 0.0 ], [ -58.37652, -34.760695, 0.0 ], [ -58.3754766, -34.7621317, 0.0 ], [ -58.3823994, -34.7656264, 0.0 ], [ -58.3900598, -34.7696013, 0.0 ], [ -58.3935359, -34.7650888, 0.0 ], [ -58.3913204, -34.7639077, 0.0 ], [ -58.3906284, -34.7606664, 0.0 ], [ -58.3959863, -34.7600076, 0.0 ] ] } }
]
}
