{
"type": "FeatureCollection",
"name": "EVG 266 - 1 V",
"crs": { "type": "name", "properties": { "name": "urn:ogc:def:crs:OGC:1.3:CRS84" } },
"features": [
{ "type": "Feature", "properties": { "Name": "266 RAMAL 1 - Desde Eva Peron", "Descripci__n": "", "nombre": "" }, "geometry": { "type": "LineString", "coordinates": [ [ -58.3423153, -34.7516155, 0.0 ], [ -58.3461107, -34.7536033, 0.0 ], [ -58.3483583, -34.7548021, 0.0 ], [ -58.3564329, -34.7588402, 0.0 ], [ -58.3751751, -34.7681687, 0.0 ], [ -58.3761836, -34.7670538, 0.0 ], [ -58.3768488, -34.766005, 0.0 ], [ -58.3799548, -34.7613953, 0.0 ], [ -58.3896107, -34.766503, 0.0 ], [ -58.3915038, -34.7639866, 0.0 ], [ -58.3912785, -34.7639205, 0.0 ], [ -58.3906284, -34.7606664, 0.0 ], [ -58.3960481, -34.759976, 0.0 ] ] } }
]
}
