{
"type": "FeatureCollection",
"name": "EVG 266 - 2 V",
"crs": { "type": "name", "properties": { "name": "urn:ogc:def:crs:OGC:1.3:CRS84" } },
"features": [
{ "type": "Feature", "properties": { "Name": "266 RAMAL 2 - Desde Jujuy", "Descripci__n": "", "nombre": "" }, "geometry": { "type": "LineString", "coordinates": [ [ -58.3574266, -34.7649861, 0.0 ], [ -58.3592228, -34.7629121, 0.0 ], [ -58.3606269, -34.7609124, 0.0 ], [ -58.3620661, -34.7616069, 0.0 ], [ -58.3689274, -34.752092, 0.0 ], [ -58.3754063, -34.7554395, 0.0 ], [ -58.3872636, -34.7616015, 0.0 ], [ -58.3874889, -34.7611784, 0.0 ], [ -58.3876015, -34.7610506, 0.0 ], [ -58.3878322, -34.7610286, 0.0 ], [ -58.3960424, -34.7599918, 0.0 ] ] } }
]
}
