{
"type": "FeatureCollection",
"name": "EVG 266 - 6 V",
"crs": { "type": "name", "properties": { "name": "urn:ogc:def:crs:OGC:1.3:CRS84" } },
"features": [
{ "type": "Feature", "properties": { "Name": "266 RAMAL 6 - Desde Estacion Lomas", "Descripci__n": "", "nombre": "" }, "geometry": { "type": "LineString", "coordinates": [ [ -58.3965513, -34.7616089, 0.0 ], [ -58.3967869, -34.7643241, 0.0 ], [ -58.3968092, -34.7648129, 0.0 ], [ -58.3938364, -34.7651283, 0.0 ], [ -58.3937032, -34.7651875, 0.0 ], [ -58.3916182, -34.7640685, 0.0 ], [ -58.3896173, -34.7666773, 0.0 ], [ -58.3891882, -34.766435, 0.0 ], [ -58.3858569, -34.7709694, 0.0 ], [ -58.3860929, -34.771084, 0.0 ], [ -58.3809833, -34.7775834, 0.0 ], [ -58.3813029, -34.7776879, 0.0 ], [ -58.3795, -34.7801944, 0.0 ] ] } }
]
}
