{
"type": "FeatureCollection",
"name": "EVG 266 - 4 V",
"crs": { "type": "name", "properties": { "name": "urn:ogc:def:crs:OGC:1.3:CRS84" } },
"features": [
{ "type": "Feature", "properties": { "Name": "266 RAMAL 4 - Desde Riglos", "Descripci__n": "", "nombre": "" }, "geometry": { "type": "LineString", "coordinates": [ [ -58.3750719, -34.7786535, 0.0 ], [ -58.3758068, -34.7776665, 0.0 ], [ -58.3701594, -34.774809, 0.0 ], [ -58.3750916, -34.7682898, 0.0 ], [ -58.3751913, -34.7681657, 0.0 ], [ -58.3775945, -34.7694745, 0.0 ], [ -58.379754, -34.7661173, 0.0 ], [ -58.383949, -34.759866, 0.0 ], [ -58.3872548, -34.7616079, 0.0 ], [ -58.3875056, -34.7611727, 0.0 ], [ -58.3875512, -34.7611176, 0.0 ], [ -58.3876303, -34.7610735, 0.0 ], [ -58.3960531, -34.7599996, 0.0 ] ] } }
]
}
