{
"type": "FeatureCollection",
"name": "EVG 564 - 9 I",
"crs": { "type": "name", "properties": { "name": "urn:ogc:def:crs:OGC:1.3:CRS84" } },
"features": [
{ "type": "Feature", "properties": { "Name": "564 RAMAL 9 - Desde Estacion Lomas" }, "geometry": { "type": "LineString", "coordinates": [ [ -58.3965088, -34.7615837, 0.0 ], [ -58.396659, -34.7629091, 0.0 ], [ -58.3968092, -34.7648129, 0.0 ], [ -58.3943791, -34.7650553, 0.0 ], [ -58.3937032, -34.7651875, 0.0 ], [ -58.390093, -34.7698454, 0.0 ], [ -58.3850021, -34.7672058, 0.0 ], [ -58.3831782, -34.766298, 0.0 ], [ -58.3817728, -34.7655136, 0.0 ], [ -58.3796377, -34.7644163, 0.0 ], [ -58.377095, -34.7630942, 0.0 ], [ -58.3769823, -34.7630501, 0.0 ], [ -58.3784736, -34.7607717, 0.0 ], [ -58.3768321, -34.7599343, 0.0 ], [ -58.3713176, -34.7571106, 0.0 ], [ -58.3701642, -34.7565343, 0.0 ], [ -58.3697619, -34.7572196, 0.0 ], [ -58.3688446, -34.7585815, 0.0 ], [ -58.368926, -34.7592885, 0.0 ], [ -58.3675626, -34.7586647, 0.0 ], [ -58.3651862, -34.757488, 0.0 ], [ -58.3643332, -34.7586383, 0.0 ], [ -58.3618361, -34.7573888, 0.0 ], [ -58.3607954, -34.7568952, 0.0 ], [ -58.3600873, -34.7566176, 0.0 ], [ -58.3597815, -34.7562562, 0.0 ], [ -58.3593845, -34.7553482, 0.0 ], [ -58.3583117, -34.7564941, 0.0 ], [ -58.3576787, -34.756135, 0.0 ], [ -58.3546585, -34.7546629, 0.0 ], [ -58.350037, -34.7522807, 0.0 ], [ -58.3498868, -34.7522278, 0.0 ], [ -58.3510348, -34.7506983, 0.0 ], [ -58.3526062, -34.7486317, 0.0 ], [ -58.3517827, -34.7482107, 0.0 ], [ -58.3511229, -34.7478229, 0.0 ], [ -58.3491381, -34.7469149, 0.0 ], [ -58.3480437, -34.7463154, 0.0 ], [ -58.3476228, -34.7460883, 0.0 ], [ -58.3475906, -34.74615, 0.0 ], [ -58.3459782, -34.7454255, 0.0 ], [ -58.3456295, -34.7452492, 0.0 ], [ -58.3455213, -34.7451826, 0.0 ], [ -58.3453751, -34.7451572, 0.0 ], [ -58.344895, -34.745177, 0.0 ], [ -58.3448896, -34.7452476, 0.0 ], [ -58.3439428, -34.7450867, 0.0 ], [ -58.3433876, -34.7466779, 0.0 ], [ -58.3426197, -34.7478242, 0.0 ], [ -58.3418633, -34.7499531, 0.0 ], [ -58.3418204, -34.7500391, 0.0 ], [ -58.3403183, -34.7492192, 0.0 ], [ -58.3376334, -34.7531861, 0.0 ], [ -58.3382289, -34.7534968, 0.0 ], [ -58.3389504, -34.7538428, 0.0 ] ] } }
]
}
