{
"type": "FeatureCollection",
"name": "EVG 564 - 3 Desde Estacion Lomas",
"crs": { "type": "name", "properties": { "name": "urn:ogc:def:crs:OGC:1.3:CRS84" } },
"features": [
{ "type": "Feature", "properties": { "Name": "564 RAMAL 3 - Desde Estacion Lomas" }, "geometry": { "type": "LineString", "coordinates": [ [ -58.3966734, -34.7611729, 0.0 ], [ -58.3894368, -34.7622262, 0.0 ], [ -58.3885356, -34.7624024, 0.0 ], [ -58.3776098, -34.75675, 0.0 ], [ -58.3742587, -34.7616992, 0.0 ], [ -58.3723003, -34.7648315, 0.0 ], [ -58.371045, -34.7641616, 0.0 ], [ -58.3696824, -34.7635226, 0.0 ], [ -58.3687007, -34.7649813, 0.0 ], [ -58.368572, -34.7649505, 0.0 ], [ -58.3671316, -34.7668608, 0.0 ], [ -58.3660346, -34.7662968, 0.0 ], [ -58.3639368, -34.7652368, 0.0 ], [ -58.3628076, -34.7646992, 0.0 ], [ -58.3620861, -34.7656467, 0.0 ], [ -58.3612519, -34.7651928, 0.0 ], [ -58.3592725, -34.7642277, 0.0 ], [ -58.3573823, -34.763351, 0.0 ], [ -58.3570483, -34.7640098, 0.0 ], [ -58.3547738, -34.7628948, 0.0 ], [ -58.3536637, -34.7623036, 0.0 ], [ -58.3481277, -34.7595889, 0.0 ], [ -58.3469314, -34.7589939, 0.0 ], [ -58.3458342, -34.7604212, 0.0 ], [ -58.3425196, -34.758619, 0.0 ], [ -58.341318, -34.760135, 0.0 ], [ -58.3582698, -34.7687709, 0.0 ], [ -58.359965, -34.769758, 0.0 ], [ -58.3616802, -34.7701703, 0.0 ], [ -58.3678306, -34.7733642, 0.0 ], [ -58.3767209, -34.778, 0.0 ], [ -58.3771509, -34.7758179, 0.0 ], [ -58.389696, -34.7813923, 0.0 ], [ -58.3899451, -34.7816472, 0.0 ], [ -58.3896876, -34.7830175, 0.0 ], [ -58.3916379, -34.7840711, 0.0 ], [ -58.3954501, -34.7795134, 0.0 ], [ -58.3956183, -34.779295, 0.0 ], [ -58.3953716, -34.7790703, 0.0 ], [ -58.3952475, -34.7789265, 0.0 ], [ -58.3955265, -34.7760833, 0.0 ] ] } }
]
}
