{
"type": "FeatureCollection",
"name": "EVG 266 - 5 V",
"crs": { "type": "name", "properties": { "name": "urn:ogc:def:crs:OGC:1.3:CRS84" } },
"features": [
{ "type": "Feature", "properties": { "Name": "266 RAMAL 5 - Desde Eva Peron", "Descripci__n": "", "nombre": "" }, "geometry": { "type": "LineString", "coordinates": [ [ -58.3395367, -34.7504187, 0.0 ], [ -58.3404917, -34.7506642, 0.0 ], [ -58.3423478, -34.7516603, 0.0 ], [ -58.3460546, -34.7536305, 0.0 ], [ -58.3473166, -34.7543093, 0.0 ], [ -58.3480086, -34.7546861, 0.0 ], [ -58.3484056, -34.7542718, 0.0 ], [ -58.3486684, -34.7538839, 0.0 ], [ -58.3526062, -34.7486317, 0.0 ], [ -58.3505341, -34.7475531, 0.0 ], [ -58.3476176, -34.7460664, 0.0 ], [ -58.347564, -34.7461612, 0.0 ], [ -58.3455091, -34.7451968, 0.0 ], [ -58.3459436, -34.7440331, 0.0 ], [ -58.3471023, -34.7408108, 0.0 ], [ -58.3638065, -34.7493756, 0.0 ], [ -58.3700753, -34.7526771, 0.0 ], [ -58.3707023, -34.7492083, 0.0 ], [ -58.3880937, -34.75827, 0.0 ], [ -58.3886377, -34.7585601, 0.0 ], [ -58.389197, -34.7608529, 0.0 ], [ -58.3960695, -34.7599821, 0.0 ] ] } }
]
}
