{
"type": "FeatureCollection",
"name": "EVG 266 - 6 I",
"crs": { "type": "name", "properties": { "name": "urn:ogc:def:crs:OGC:1.3:CRS84" } },
"features": [
{ "type": "Feature", "properties": { "Name": "266 RAMAL 6 - Desde Achupallas", "Descripci__n": "", "nombre": "" }, "geometry": { "type": "LineString", "coordinates": [ [ -58.3784827, -34.7813637, 0.0 ], [ -58.3810952, -34.7777464, 0.0 ], [ -58.3808001, -34.7776318, 0.0 ], [ -58.3858695, -34.77115, 0.0 ], [ -58.3856549, -34.7709914, 0.0 ], [ -58.3891418, -34.7662719, 0.0 ], [ -58.3895656, -34.7665142, 0.0 ], [ -58.3915325, -34.7639963, 0.0 ], [ -58.3913019, -34.7638817, 0.0 ], [ -58.3906622, -34.7606767, 0.0 ], [ -58.3960559, -34.7599935, 0.0 ] ] } }
]
}
