{
"type": "FeatureCollection",
"name": "EVG 266 - 4 I",
"crs": { "type": "name", "properties": { "name": "urn:ogc:def:crs:OGC:1.3:CRS84" } },
"features": [
{ "type": "Feature", "properties": { "Name": "266 RAMAL 4 - Desde Estacion Lomas", "Descripci__n": "", "nombre": "" }, "geometry": { "type": "LineString", "coordinates": [ [ -58.3966415, -34.7612145, 0.0 ], [ -58.3885098, -34.7623877, 0.0 ], [ -58.3851607, -34.7606205, 0.0 ], [ -58.3839148, -34.7624604, 0.0 ], [ -58.3828205, -34.7618523, 0.0 ], [ -58.3786631, -34.7681012, 0.0 ], [ -58.3764315, -34.7669158, 0.0 ], [ -58.3751574, -34.7683766, 0.0 ], [ -58.3744708, -34.7693241, 0.0 ], [ -58.3738269, -34.7701005, 0.0 ], [ -58.3702987, -34.7748649, 0.0 ], [ -58.3747136, -34.7770063, 0.0 ], [ -58.375993, -34.777621, 0.0 ], [ -58.374668, -34.7793768, 0.0 ] ] } }
]
}
