{
"type": "FeatureCollection",
"name": "EVG 266 - 5 I",
"crs": { "type": "name", "properties": { "name": "urn:ogc:def:crs:OGC:1.3:CRS84" } },
"features": [
{ "type": "Feature", "properties": { "Name": "266 RAMAL 5 - Desde Estacion Lomas", "Descripci__n": "", "nombre": "" }, "geometry": { "type": "LineString", "coordinates": [ [ -58.3969207, -34.7606065, 0.0 ], [ -58.3969905, -34.7606682, 0.0 ], [ -58.3970146, -34.7607938, 0.0 ], [ -58.3970481, -34.7610042, 0.0 ], [ -58.3970079, -34.7611276, 0.0 ], [ -58.3969194, -34.7611739, 0.0 ], [ -58.3922923, -34.7619157, 0.0 ], [ -58.3909572, -34.762069, 0.0 ], [ -58.3901759, -34.7584719, 0.0 ], [ -58.3885451, -34.7586482, 0.0 ], [ -58.3707942, -34.7493882, 0.0 ], [ -58.3701711, -34.7528416, 0.0 ], [ -58.3471775, -34.7409579, 0.0 ], [ -58.345666, -34.7451466, 0.0 ], [ -58.3526746, -34.7485605, 0.0 ], [ -58.3527895, -34.7486204, 0.0 ], [ -58.3486055, -34.7542058, 0.0 ], [ -58.3481576, -34.7547369, 0.0 ], [ -58.3480557, -34.7548404, 0.0 ], [ -58.3421267, -34.7517055, 0.0 ], [ -58.3402759, -34.7507634, 0.0 ], [ -58.3394391, -34.7505298, 0.0 ] ] } }
]
}
