{
"type": "FeatureCollection",
"name": "EVG 266 - 7:8 I",
"crs": { "type": "name", "properties": { "name": "urn:ogc:def:crs:OGC:1.3:CRS84" } },
"features": [
{ "type": "Feature", "properties": { "Name": "266 RAMAL 7/8 - Desde Estacion Banfield", "Descripci__n": "", "nombre": "" }, "geometry": { "type": "LineString", "coordinates": [ [ -58.3952726, -34.7449686, 0.0 ], [ -58.3952391, -34.7450722, 0.0 ], [ -58.395172, -34.745178, 0.0 ], [ -58.3951251, -34.7452188, 0.0 ], [ -58.3950433, -34.7452386, 0.0 ], [ -58.3945766, -34.7431228, 0.0 ], [ -58.3933588, -34.7432771, 0.0 ], [ -58.3937773, -34.745534, 0.0 ], [ -58.3942517, -34.7481016, 0.0 ], [ -58.3946916, -34.7504443, 0.0 ], [ -58.3952951, -34.7539857, 0.0 ], [ -58.3959281, -34.7575557, 0.0 ], [ -58.3965028, -34.7611347, 0.0 ], [ -58.3968092, -34.7648129, 0.0 ], [ -58.3938364, -34.7651283, 0.0 ], [ -58.3936972, -34.7651737, 0.0 ], [ -58.3901015, -34.769777, 0.0 ], [ -58.3785214, -34.7638164, 0.0 ], [ -58.37353, -34.7616356, 0.0 ], [ -58.3784736, -34.7607717, 0.0 ], [ -58.3713113, -34.7571206, 0.0 ], [ -58.3701642, -34.7565343, 0.0 ], [ -58.3688209, -34.7585871, 0.0 ], [ -58.3689282, -34.7593584, 0.0 ], [ -58.3681664, -34.7603963, 0.0 ], [ -58.3690998, -34.760837, 0.0 ], [ -58.369529, -34.7622472, 0.0 ], [ -58.3683434, -34.7636442, 0.0 ], [ -58.3664981, -34.7628047, 0.0 ], [ -58.3659321, -34.7636464, 0.0 ], [ -58.3624493, -34.7619222, 0.0 ], [ -58.3594859, -34.7660403, 0.0 ] ] } }
]
}
